YAOGAN-30 07A           
1 45460U 20021A   26068.55604639  .00004701  00000+0  35264-3 0  9998
2 45460  34.9941  97.9026 0004392 231.7665 128.2648 15.02093562325567
STARLINK-35187          
1 65521U 25200B   26068.76281469  .00004062  00000+0  28559-3 0  9996
2 65521  97.6017 139.8981 0000439 140.7371 219.3888 15.05646685 29140
