[{"OBJECT_NAME":"YAOGAN-30 07A","OBJECT_ID":"2020-021A","EPOCH":"2026-03-09T13:20:42.408096","MEAN_MOTION":15.02093562,"ECCENTRICITY":0.0004392,"INCLINATION":34.9941,"RA_OF_ASC_NODE":97.9026,"ARG_OF_PERICENTER":231.7665,"MEAN_ANOMALY":128.2648,"EPHEMERIS_TYPE":0,"CLASSIFICATION_TYPE":"U","NORAD_CAT_ID":45460,"ELEMENT_SET_NO":999,"REV_AT_EPOCH":32556,"BSTAR":0.00035264,"MEAN_MOTION_DOT":4.701e-5,"MEAN_MOTION_DDOT":0},{"OBJECT_NAME":"STARLINK-35187","OBJECT_ID":"2025-200B","EPOCH":"2026-03-09T18:18:27.189216","MEAN_MOTION":15.05646685,"ECCENTRICITY":4.385e-5,"INCLINATION":97.6017,"RA_OF_ASC_NODE":139.8981,"ARG_OF_PERICENTER":140.7371,"MEAN_ANOMALY":219.3888,"EPHEMERIS_TYPE":0,"CLASSIFICATION_TYPE":"U","NORAD_CAT_ID":65521,"ELEMENT_SET_NO":999,"REV_AT_EPOCH":2914,"BSTAR":0.00028559409,"MEAN_MOTION_DOT":4.062e-5,"MEAN_MOTION_DDOT":0}]
